{"Altimeter":"2991","CloudList":[["BKN","013"],["OVC","037"]],"Dewpoint":"M02","FlightRules":"IFR","Meta":{"CacheTimestamp":"Mon, 05 Nov 2018 02:04:15 GMT","Timestamp":"Mon, 05 Nov 2018 02:04:15 GMT"},"OtherList":["SN","BR"],"RawReport":"KASE 050153Z 00000KT 2SM SN BR BKN013 OVC037 M01/M02 A2991 RMK AO2 SLP113 P0006 T10111022","Remarks":"RMK AO2 SLP113 P0006 T10111022","RemarksInfo":{"DewDecimal":"2.2","TempDecimal":"1.1"},"RunwayVisList":[],"Sanitized":"KASE 050153Z 00000KT 2SM SN BR BKN013 OVC037 M01/M02 A2991 RMK AO2 SLP113 P0006 T10111022","Station":"KASE","Temperature":"M01","Time":"050153Z","Units":{"Altimeter":"inHg","Altitude":"ft","Temperature":"C","Visibility":"sm","WindSpeed":"kt"},"Visibility":"2","WindDirection":"000","WindGust":"","WindSpeed":"00","WindVariableDir":[]}
