{"Altimeter":"2982","CloudList":[["FEW","012"],["OVC","021"]],"Dewpoint":"01","FlightRules":"MVFR","Meta":{"CacheTimestamp":"Tue, 30 Oct 2018 20:10:40 GMT","Timestamp":"Tue, 30 Oct 2018 20:10:40 GMT"},"OtherList":[],"RawReport":"KCAR 301954Z AUTO 32009KT 10SM FEW012 OVC021 04/01 A2982 RMK AO2 SLP106 T00390011","Remarks":"RMK AO2 SLP106 T00390011","RemarksInfo":{"DewDecimal":"1.1","TempDecimal":"3.9"},"RunwayVisList":[],"Sanitized":"KCAR 301954Z AUTO 32009KT 10SM FEW012 OVC021 04/01 A2982 RMK AO2 SLP106 T00390011","Station":"KCAR","Temperature":"04","Time":"301954Z","Units":{"Altimeter":"inHg","Altitude":"ft","Temperature":"C","Visibility":"sm","WindSpeed":"kt"},"Visibility":"10","WindDirection":"320","WindGust":"","WindSpeed":"09","WindVariableDir":[]}
