{"Altimeter":"2989","CloudList":[["BKN","240"]],"Dewpoint":"M06","FlightRules":"VFR","Meta":{"CacheTimestamp":"Tue, 30 Oct 2018 00:06:57 GMT","Timestamp":"Tue, 30 Oct 2018 00:07:18 GMT"},"OtherList":[],"RawReport":"KCOS 292354Z 19010G18KT 10SM BKN240 19/M06 A2989 RMK AO2 SLP064 CCSL DSNT S T01941061 10244 20194 53002","Remarks":"RMK AO2 SLP064 CCSL DSNT S T01941061 10244 20194 53002","RemarksInfo":{"DewDecimal":"6.1","TempDecimal":"19.4"},"RunwayVisList":[],"Sanitized":"KCOS 292354Z 19010G18KT 10SM BKN240 19/M06 A2989 RMK AO2 SLP064 CCSL DSNT S T01941061 10244 20194 53002","Station":"KCOS","Temperature":"19","Time":"292354Z","Units":{"Altimeter":"inHg","Altitude":"ft","Temperature":"C","Visibility":"sm","WindSpeed":"kt"},"Visibility":"10","WindDirection":"190","WindGust":"18","WindSpeed":"10","WindVariableDir":[]}
