{"Altimeter":"3008","CloudList":[["BKN","039"],["BKN","050"],["OVC","060"]],"Dewpoint":"M05","FlightRules":"MVFR","Meta":{"CacheTimestamp":"Sun, 11 Nov 2018 05:41:07 GMT","Timestamp":"Sun, 11 Nov 2018 05:41:07 GMT"},"OtherList":["SN","BR"],"RawReport":"KCYS 110453Z AUTO 05007KT 3SM SN BR BKN039 BKN050 OVC060 M03/M05 A3008 RMK AO2 SNB13 SLP193 P0000 T10331050 $","Remarks":"RMK AO2 SNB13 SLP193 P0000 T10331050 $","RemarksInfo":{"DewDecimal":"5.0","TempDecimal":"3.3"},"RunwayVisList":[],"Sanitized":"KCYS 110453Z AUTO 05007KT 3SM SN BR BKN039 BKN050 OVC060 M03/M05 A3008 RMK AO2 SNB13 SLP193 P0000 T10331050 $","Station":"KCYS","Temperature":"M03","Time":"110453Z","Units":{"Altimeter":"inHg","Altitude":"ft","Temperature":"C","Visibility":"sm","WindSpeed":"kt"},"Visibility":"3","WindDirection":"050","WindGust":"","WindSpeed":"07","WindVariableDir":[]}
