{"Altimeter":"2994","CloudList":[["FEW","055"],["FEW","300"]],"Dewpoint":"16","FlightRules":"VFR","Meta":{"CacheTimestamp":"Tue, 30 Oct 2018 00:07:51 GMT","Timestamp":"Tue, 30 Oct 2018 00:08:14 GMT"},"OtherList":[],"RawReport":"KDAL 292353Z 17010KT 10SM FEW055 FEW300 26/16 A2994 RMK AO2 SLP132 T02610161 10283 20261 55010 $","Remarks":"RMK AO2 SLP132 T02610161 10283 20261 55010 $","RemarksInfo":{"DewDecimal":"16.1","TempDecimal":"26.1"},"RunwayVisList":[],"Sanitized":"KDAL 292353Z 17010KT 10SM FEW055 FEW300 26/16 A2994 RMK AO2 SLP132 T02610161 10283 20261 55010 $","Station":"KDAL","Temperature":"26","Time":"292353Z","Units":{"Altimeter":"inHg","Altitude":"ft","Temperature":"C","Visibility":"sm","WindSpeed":"kt"},"Visibility":"10","WindDirection":"170","WindGust":"","WindSpeed":"10","WindVariableDir":[]}
