{"Altimeter":"2990","CloudList":[["BKN","110"],["BKN","150"],["BKN","220"]],"Dewpoint":"M12","FlightRules":"VFR","Meta":{"CacheTimestamp":"Tue, 27 Nov 2018 20:37:36 GMT","Timestamp":"Tue, 27 Nov 2018 20:37:54 GMT"},"OtherList":[],"RawReport":"KDEN 271953Z 24006KT 10SM BKN110 BKN150 BKN220 12/M12 A2990 RMK AO2 SLP100 T01171117 $","Remarks":"RMK AO2 SLP100 T01171117 $","RemarksInfo":{"DewDecimal":"11.7","TempDecimal":"11.7"},"RunwayVisList":[],"Sanitized":"KDEN 271953Z 24006KT 10SM BKN110 BKN150 BKN220 12/M12 A2990 RMK AO2 SLP100 T01171117 $","Station":"KDEN","Temperature":"12","Time":"271953Z","Units":{"Altimeter":"inHg","Altitude":"ft","Temperature":"C","Visibility":"sm","WindSpeed":"kt"},"Visibility":"10","WindDirection":"240","WindGust":"","WindSpeed":"06","WindVariableDir":[]}
