{"Altimeter":"2992","CloudList":[["FEW","050"],["FEW","250"]],"Dewpoint":"16","FlightRules":"VFR","Meta":{"CacheTimestamp":"Tue, 30 Oct 2018 00:07:08 GMT","Timestamp":"Tue, 30 Oct 2018 00:08:08 GMT"},"OtherList":[],"RawReport":"KDFW 292353Z 17009KT 10SM FEW050 FEW250 25/16 A2992 RMK AO2 SLP126 T02500156 10283 20250 55010","Remarks":"RMK AO2 SLP126 T02500156 10283 20250 55010","RemarksInfo":{"DewDecimal":"15.6","TempDecimal":"25.0"},"RunwayVisList":[],"Sanitized":"KDFW 292353Z 17009KT 10SM FEW050 FEW250 25/16 A2992 RMK AO2 SLP126 T02500156 10283 20250 55010","Station":"KDFW","Temperature":"25","Time":"292353Z","Units":{"Altimeter":"inHg","Altitude":"ft","Temperature":"C","Visibility":"sm","WindSpeed":"kt"},"Visibility":"10","WindDirection":"170","WindGust":"","WindSpeed":"09","WindVariableDir":[]}
