{"Altimeter":"3008","CloudList":[],"Dewpoint":"M02","FlightRules":"VFR","Meta":{"CacheTimestamp":"Wed, 31 Oct 2018 01:00:39 GMT","Timestamp":"Wed, 31 Oct 2018 01:00:39 GMT"},"OtherList":[],"RawReport":"KEEN 310056Z AUTO 00000KT 10SM CLR M02/M02 A3008 RMK AO2 SLP207 T10171022 FZRANO $","Remarks":"RMK AO2 SLP207 T10171022 FZRANO $","RemarksInfo":{"DewDecimal":"2.2","TempDecimal":"1.7"},"RunwayVisList":[],"Sanitized":"KEEN 310056Z AUTO 00000KT 10SM CLR M02/M02 A3008 RMK AO2 SLP207 T10171022 FZRANO $","Station":"KEEN","Temperature":"M02","Time":"310056Z","Units":{"Altimeter":"inHg","Altitude":"ft","Temperature":"C","Visibility":"sm","WindSpeed":"kt"},"Visibility":"10","WindDirection":"000","WindGust":"","WindSpeed":"00","WindVariableDir":[]}
