{"Altimeter":"2998","CloudList":[["FEW","020"],["OVC","029"]],"Dewpoint":"M01","FlightRules":"IFR","Meta":{"CacheTimestamp":"Sun, 04 Nov 2018 20:59:20 GMT","Timestamp":"Sun, 04 Nov 2018 20:59:34 GMT"},"OtherList":["SN","BR"],"RawReport":"KEGE 042056Z 30009KT 1 1/2SM SN BR FEW020 OVC029 02/M01 A2998 RMK AO2 UPB37E41SNE37B41 SLP171 P0000 60000 T00171006 56021","Remarks":"RMK AO2 UPB37E41SNE37B41 SLP171 P0000 60000 T00171006 56021","RemarksInfo":{"DewDecimal":"0.6","TempDecimal":"1.7"},"RunwayVisList":[],"Sanitized":"KEGE 042056Z 30009KT 1 1/2SM SN BR FEW020 OVC029 02/M01 A2998 RMK AO2 UPB37E41SNE37B41 SLP171 P0000 60000 T00171006 56021","Station":"KEGE","Temperature":"02","Time":"042056Z","Units":{"Altimeter":"inHg","Altitude":"ft","Temperature":"C","Visibility":"sm","WindSpeed":"kt"},"Visibility":"3/2","WindDirection":"300","WindGust":"","WindSpeed":"09","WindVariableDir":[]}
