{"Altimeter":"2998","CloudList":[["OVC","020"]],"Dewpoint":"10","FlightRules":"MVFR","Meta":{"CacheTimestamp":"Mon, 05 Nov 2018 02:03:56 GMT","Timestamp":"Mon, 05 Nov 2018 02:03:56 GMT"},"OtherList":[],"RawReport":"KEVV 050154Z 19007KT 10SM OVC020 11/10 A2998 RMK AO2 RAE0058B22E32 SLP150 P0000 T01110100 $","Remarks":"RMK AO2 RAE0058B22E32 SLP150 P0000 T01110100 $","RemarksInfo":{"DewDecimal":"10.0","TempDecimal":"11.1"},"RunwayVisList":[],"Sanitized":"KEVV 050154Z 19007KT 10SM OVC020 11/10 A2998 RMK AO2 RAE0058B22E32 SLP150 P0000 T01110100 $","Station":"KEVV","Temperature":"11","Time":"050154Z","Units":{"Altimeter":"inHg","Altitude":"ft","Temperature":"C","Visibility":"sm","WindSpeed":"kt"},"Visibility":"10","WindDirection":"190","WindGust":"","WindSpeed":"07","WindVariableDir":[]}
