{"Altimeter":"2964","CloudList":[["SCT","075"],["BKN","140"],["BKN","220"]],"Dewpoint":"01","FlightRules":"VFR","Meta":{"CacheTimestamp":"Mon, 05 Nov 2018 00:08:05 GMT","Timestamp":"Mon, 05 Nov 2018 00:08:05 GMT"},"OtherList":[],"RawReport":"KFTG 042350Z 36004KT 10SM SCT075 BKN140 BKN220 09/01 A2964","Remarks":"","RemarksInfo":{"DewDecimal":"","TempDecimal":""},"RunwayVisList":[],"Sanitized":"KFTG 042350Z 36004KT 10SM SCT075 BKN140 BKN220 09/01 A2964","Station":"KFTG","Temperature":"09","Time":"042350Z","Units":{"Altimeter":"inHg","Altitude":"ft","Temperature":"C","Visibility":"sm","WindSpeed":"kt"},"Visibility":"10","WindDirection":"360","WindGust":"","WindSpeed":"04","WindVariableDir":[]}
