{"Altimeter":"3019","CloudList":[["OVC","005"]],"Dewpoint":"12","FlightRules":"IFR","Meta":{"CacheTimestamp":"Thu, 22 Nov 2018 07:51:27 GMT","Timestamp":"Thu, 22 Nov 2018 07:51:27 GMT"},"OtherList":["BR"],"RawReport":"KHRL 220652Z 35013KT 6SM BR OVC005 13/12 A3019 RMK AO2 RAE12 SLP222 P0000 T01280117","Remarks":"RMK AO2 RAE12 SLP222 P0000 T01280117","RemarksInfo":{"DewDecimal":"11.7","TempDecimal":"12.8"},"RunwayVisList":[],"Sanitized":"KHRL 220652Z 35013KT 6SM BR OVC005 13/12 A3019 RMK AO2 RAE12 SLP222 P0000 T01280117","Station":"KHRL","Temperature":"13","Time":"220652Z","Units":{"Altimeter":"inHg","Altitude":"ft","Temperature":"C","Visibility":"sm","WindSpeed":"kt"},"Visibility":"6","WindDirection":"350","WindGust":"","WindSpeed":"13","WindVariableDir":[]}
