{"Altimeter":"3048","CloudList":[["SCT","250"]],"Dewpoint":"02","FlightRules":"VFR","Meta":{"CacheTimestamp":"Mon, 05 Nov 2018 02:03:32 GMT","Timestamp":"Mon, 05 Nov 2018 02:03:49 GMT"},"OtherList":[],"RawReport":"KLGA 050151Z 14006KT 10SM SCT250 10/02 A3048 RMK AO2 SLP321 T01000022","Remarks":"RMK AO2 SLP321 T01000022","RemarksInfo":{"DewDecimal":"2.2","TempDecimal":"10.0"},"RunwayVisList":[],"Sanitized":"KLGA 050151Z 14006KT 10SM SCT250 10/02 A3048 RMK AO2 SLP321 T01000022","Station":"KLGA","Temperature":"10","Time":"050151Z","Units":{"Altimeter":"inHg","Altitude":"ft","Temperature":"C","Visibility":"sm","WindSpeed":"kt"},"Visibility":"10","WindDirection":"140","WindGust":"","WindSpeed":"06","WindVariableDir":[]}
